{
  "type": "FeatureCollection",
  "features": [
    {
      "type": "Feature",
      "properties": {
        "norad_id": 36559,
        "name": "COSMOS 2251 DEB",
        "group": "cosmos-2251-debris",
        "lat": 25.98137116124618,
        "lon": -172.82657889258383,
        "alt_km": 950.1459853884571,
        "timestamp": "2025-12-09T14:52:26.559925+00:00",
        "meta_object_name": "COSMOS 2251 DEB",
        "meta_object_id": "1993-036BDV",
        "meta_epoch": "2025-12-09T02:07:20.280288",
        "meta_mean_motion": 13.95143806,
        "meta_eccentricity": 0.02599602,
        "meta_inclination": 74.1299,
        "meta_ra_of_asc_node": 16.0496,
        "meta_arg_of_pericenter": 49.9692,
        "meta_mean_anomaly": 312.3935,
        "meta_ephemeris_type": 0,
        "meta_classification_type": "U",
        "meta_norad_cat_id": 36559,
        "meta_element_set_no": 999,
        "meta_rev_at_epoch": 81043,
        "meta_bstar": 0.0028021544,
        "meta_mean_motion_dot": 4.995e-05,
        "meta_mean_motion_ddot": 0,
        "tle_line1": "1 36559U 93036BDV 25343.08842917  .00004995  00000+0  28022-2 0  9997",
        "tle_line2": "2 36559  74.1299  16.0496 0259960  49.9692 312.3935 13.95143806810430"
      },
      "geometry": {
        "type": "Point",
        "coordinates": [
          -172.82657889258383,
          25.98137116124618
        ]
      }
    },
    {
      "type": "Feature",
      "properties": {
        "norad_id": 36614,
        "name": "COSMOS 2251 DEB",
        "group": "cosmos-2251-debris",
        "lat": -35.35857750855283,
        "lon": 168.81459816453219,
        "alt_km": 694.9781040090265,
        "timestamp": "2025-12-09T14:52:26.559935+00:00",
        "meta_object_name": "COSMOS 2251 DEB",
        "meta_object_id": "1993-036BEC",
        "meta_epoch": "2025-12-07T20:17:29.491872",
        "meta_mean_motion": 14.60174339,
        "meta_eccentricity": 0.00163717,
        "meta_inclination": 74.0208,
        "meta_ra_of_asc_node": 183.9343,
        "meta_arg_of_pericenter": 254.1253,
        "meta_mean_anomaly": 105.8109,
        "meta_ephemeris_type": 0,
        "meta_classification_type": "U",
        "meta_norad_cat_id": 36614,
        "meta_element_set_no": 999,
        "meta_rev_at_epoch": 65541,
        "meta_bstar": 0.0021436205,
        "meta_mean_motion_dot": 0.00010332,
        "meta_mean_motion_ddot": 0,
        "tle_line1": "1 36614U 93036BEC 25341.84548023  .00010332  00000+0  21436-2 0  9996",
        "tle_line2": "2 36614  74.0208 183.9343 0016371 254.1253 105.8109 14.60174339655417"
      },
      "geometry": {
        "type": "Point",
        "coordinates": [
          168.81459816453219,
          -35.35857750855283
        ]
      }
    },
    {
      "type": "Feature",
      "properties": {
        "norad_id": 36622,
        "name": "COSMOS 2251 DEB",
        "group": "cosmos-2251-debris",
        "lat": -26.769807585042717,
        "lon": -20.089570755173686,
        "alt_km": 637.8965289807384,
        "timestamp": "2025-12-09T14:52:26.559945+00:00",
        "meta_object_name": "COSMOS 2251 DEB",
        "meta_object_id": "1993-036BEL",
        "meta_epoch": "2025-12-07T18:00:44.362080",
        "meta_mean_motion": 14.76130008,
        "meta_eccentricity": 0.00687085,
        "meta_inclination": 74.0127,
        "meta_ra_of_asc_node": 155.2579,
        "meta_arg_of_pericenter": 291.6324,
        "meta_mean_anomaly": 67.7541,
        "meta_ephemeris_type": 0,
        "meta_classification_type": "U",
        "meta_norad_cat_id": 36622,
        "meta_element_set_no": 999,
        "meta_rev_at_epoch": 66676,
        "meta_bstar": 0.0010654006,
        "meta_mean_motion_dot": 7.621e-05,
        "meta_mean_motion_ddot": 0,
        "tle_line1": "1 36622U 93036BEL 25341.75051345  .00007621  00000+0  10654-2 0  9998",
        "tle_line2": "2 36622  74.0127 155.2579 0068708 291.6324  67.7541 14.76130008666763"
      },
      "geometry": {
        "type": "Point",
        "coordinates": [
          -20.089570755173686,
          -26.769807585042717
        ]
      }
    },
    {
      "type": "Feature",
      "properties": {
        "norad_id": 36632,
        "name": "COSMOS 2251 DEB",
        "group": "cosmos-2251-debris",
        "lat": 19.897398302100843,
        "lon": -55.862635900648655,
        "alt_km": 727.467590960252,
        "timestamp": "2025-12-09T14:52:26.559955+00:00",
        "meta_object_name": "COSMOS 2251 DEB",
        "meta_object_id": "1993-036BEW",
        "meta_epoch": "2025-12-08T03:50:26.997216",
        "meta_mean_motion": 14.43133085,
        "meta_eccentricity": 0.00317609,
        "meta_inclination": 74.0032,
        "meta_ra_of_asc_node": 300.8928,
        "meta_arg_of_pericenter": 49.809,
        "meta_mean_anomaly": 310.5839,
        "meta_ephemeris_type": 0,
        "meta_classification_type": "U",
        "meta_norad_cat_id": 36632,
        "meta_element_set_no": 999,
        "meta_rev_at_epoch": 65149,
        "meta_bstar": 0.0011897932,
        "meta_mean_motion_dot": 3.995e-05,
        "meta_mean_motion_ddot": 0,
        "tle_line1": "1 36632U 93036BEW 25342.16003469  .00003995  00000+0  11898-2 0  9990",
        "tle_line2": "2 36632  74.0032 300.8928 0031760  49.8090 310.5839 14.43133085651491"
      },
      "geometry": {
        "type": "Point",
        "coordinates": [
          -55.862635900648655,
          19.897398302100843
        ]
      }
    },
    {
      "type": "Feature",
      "properties": {
        "norad_id": 37084,
        "name": "COSMOS 2251 DEB",
        "group": "cosmos-2251-debris",
        "lat": 73.61716960239313,
        "lon": -89.19450364313148,
        "alt_km": 618.3936956794196,
        "timestamp": "2025-12-09T14:52:26.559966+00:00",
        "meta_object_name": "COSMOS 2251 DEB",
        "meta_object_id": "1993-036BFE",
        "meta_epoch": "2025-12-08T19:15:18.077184",
        "meta_mean_motion": 15.00891112,
        "meta_eccentricity": 0.00979748,
        "meta_inclination": 74.0259,
        "meta_ra_of_asc_node": 169.4673,
        "meta_arg_of_pericenter": 250.8811,
        "meta_mean_anomaly": 108.175,
        "meta_ephemeris_type": 0,
        "meta_classification_type": "U",
        "meta_norad_cat_id": 37084,
        "meta_element_set_no": 999,
        "meta_rev_at_epoch": 66208,
        "meta_bstar": 0.00080064992,
        "meta_mean_motion_dot": 0.00011267,
        "meta_mean_motion_ddot": 0,
        "tle_line1": "1 37084U 93036BFE 25342.80229256  .00011267  00000+0  80065-3 0  9991",
        "tle_line2": "2 37084  74.0259 169.4673 0097974 250.8811 108.1750 15.00891112662080"
      },
      "geometry": {
        "type": "Point",
        "coordinates": [
          -89.19450364313148,
          73.61716960239313
        ]
      }
    },
    {
      "type": "Feature",
      "properties": {
        "norad_id": 37085,
        "name": "COSMOS 2251 DEB",
        "group": "cosmos-2251-debris",
        "lat": 46.18212803952632,
        "lon": -119.69737719662128,
        "alt_km": 425.0811631027382,
        "timestamp": "2025-12-09T14:52:26.559976+00:00",
        "meta_object_name": "COSMOS 2251 DEB",
        "meta_object_id": "1993-036BFF",
        "meta_epoch": "2025-12-02T23:36:37.668384",
        "meta_mean_motion": 15.39020756,
        "meta_eccentricity": 0.0022856,
        "meta_inclination": 73.9503,
        "meta_ra_of_asc_node": 237.2473,
        "meta_arg_of_pericenter": 76.375,
        "meta_mean_anomaly": 284,
        "meta_ephemeris_type": 0,
        "meta_classification_type": "U",
        "meta_norad_cat_id": 37085,
        "meta_element_set_no": 999,
        "meta_rev_at_epoch": 66987,
        "meta_bstar": 0.0028642077,
        "meta_mean_motion_dot": 0.00113322,
        "meta_mean_motion_ddot": 0,
        "tle_line1": "1 37085U 93036BFF 25336.98376931  .00113322  00000+0  28642-2 0  9994",
        "tle_line2": "2 37085  73.9503 237.2473 0022856  76.3750 284.0000 15.39020756669879"
      },
      "geometry": {
        "type": "Point",
        "coordinates": [
          -119.69737719662128,
          46.18212803952632
        ]
      }
    },
    {
      "type": "Feature",
      "properties": {
        "norad_id": 37089,
        "name": "COSMOS 2251 DEB",
        "group": "cosmos-2251-debris",
        "lat": 70.16157278300251,
        "lon": -80.8712114770292,
        "alt_km": 792.4615222484272,
        "timestamp": "2025-12-09T14:52:26.559986+00:00",
        "meta_object_name": "COSMOS 2251 DEB",
        "meta_object_id": "1993-036BFK",
        "meta_epoch": "2025-12-08T05:20:37.786848",
        "meta_mean_motion": 14.52807892,
        "meta_eccentricity": 0.01353256,
        "meta_inclination": 74.0364,
        "meta_ra_of_asc_node": 154.2692,
        "meta_arg_of_pericenter": 255.408,
        "meta_mean_anomaly": 103.2044,
        "meta_ephemeris_type": 0,
        "meta_classification_type": "U",
        "meta_norad_cat_id": 37089,
        "meta_element_set_no": 999,
        "meta_rev_at_epoch": 66044,
        "meta_bstar": 0.0030256992,
        "meta_mean_motion_dot": 0.00014025,
        "meta_mean_motion_ddot": 0,
        "tle_line1": "1 37089U 93036BFK 25342.22265957  .00014025  00000+0  30257-2 0  9992",
        "tle_line2": "2 37089  74.0364 154.2692 0135325 255.4080 103.2044 14.52807892660445"
      },
      "geometry": {
        "type": "Point",
        "coordinates": [
          -80.8712114770292,
          70.16157278300251
        ]
      }
    }
  ]
}